[
  {
    "OBJECT_NAME": "STARLINK-5634",
    "OBJECT_ID": "2023-014BA",
    "EPOCH": "2023-02-11T18:31:28.011936",
    "MEAN_MOTION": 15.69982843,
    "ECCENTRICITY": 0.000254,
    "INCLINATION": 70.0018,
    "RA_OF_ASC_NODE": 58.5563,
    "ARG_OF_PERICENTER": 254.923,
    "MEAN_ANOMALY": 105.1684,
    "EPHEMERIS_TYPE": 0,
    "CLASSIFICATION_TYPE": "U",
    "NORAD_CAT_ID": 55439,
    "ELEMENT_SET_NO": 999,
    "REV_AT_EPOCH": 288,
    "BSTAR": 0.00075179,
    "MEAN_MOTION_DOT": 0.00091385,
    "MEAN_MOTION_DDOT": 0
  },
  {
    "OBJECT_NAME": "ION SCV-009",
    "OBJECT_ID": "2023-014BC",
    "EPOCH": "2023-02-10T14:16:19.296192",
    "MEAN_MOTION": 15.76991209,
    "ECCENTRICITY": 0.0021046,
    "INCLINATION": 70.0077,
    "RA_OF_ASC_NODE": 61.6896,
    "ARG_OF_PERICENTER": 318.2088,
    "MEAN_ANOMALY": 26.579,
    "EPHEMERIS_TYPE": 0,
    "CLASSIFICATION_TYPE": "U",
    "NORAD_CAT_ID": 55441,
    "ELEMENT_SET_NO": 999,
    "REV_AT_EPOCH": 188,
    "BSTAR": -0.0023844,
    "MEAN_MOTION_DOT": -0.00377891,
    "MEAN_MOTION_DDOT": 0
  },
  {
    "OBJECT_NAME": "APSTAR 6E SPS",
    "OBJECT_ID": "2023-005C",
    "EPOCH": "2023-02-11T21:56:06.476640",
    "MEAN_MOTION": 7.60507953,
    "ECCENTRICITY": 0.2303091,
    "INCLINATION": 28.6623,
    "RA_OF_ASC_NODE": 313.6468,
    "ARG_OF_PERICENTER": 179.9125,
    "MEAN_ANOMALY": 180.195,
    "EPHEMERIS_TYPE": 0,
    "CLASSIFICATION_TYPE": "U",
    "NORAD_CAT_ID": 55447,
    "ELEMENT_SET_NO": 999,
    "REV_AT_EPOCH": 90,
    "BSTAR": -0.015187,
    "MEAN_MOTION_DOT": -7.0e-7,
    "MEAN_MOTION_DDOT": 0
  },
  {
    "OBJECT_NAME": "STARLINK-5699",
    "OBJECT_ID": "2023-015A",
    "EPOCH": "2023-02-12T06:00:00.999648",
    "MEAN_MOTION": 15.71302987,
    "ECCENTRICITY": 0.000213,
    "INCLINATION": 43.0004,
    "RA_OF_ASC_NODE": 328.9835,
    "ARG_OF_PERICENTER": 246.3766,
    "MEAN_ANOMALY": 347.5153,
    "EPHEMERIS_TYPE": 0,
    "CLASSIFICATION_TYPE": "U",
    "NORAD_CAT_ID": 55449,
    "ELEMENT_SET_NO": 999,
    "REV_AT_EPOCH": 172,
    "BSTAR": 0.00066791,
    "MEAN_MOTION_DOT": 0.00087869,
    "MEAN_MOTION_DDOT": 0
  },
  {
    "OBJECT_NAME": "STARLINK-5686",
    "OBJECT_ID": "2023-015B",
    "EPOCH": "2023-02-11T22:00:00.999936",
    "MEAN_MOTION": 15.71385347,
    "ECCENTRICITY": 0.0001704,
    "INCLINATION": 42.9998,
    "RA_OF_ASC_NODE": 330.9958,
    "ARG_OF_PERICENTER": 260.2583,
    "MEAN_ANOMALY": 245.1043,
    "EPHEMERIS_TYPE": 0,
    "CLASSIFICATION_TYPE": "U",
    "NORAD_CAT_ID": 55450,
    "ELEMENT_SET_NO": 999,
    "REV_AT_EPOCH": 130,
    "BSTAR": -0.00041901,
    "MEAN_MOTION_DOT": -0.00055106,
    "MEAN_MOTION_DDOT": 0
  },
  {
    "OBJECT_NAME": "STARLINK-5656",
    "OBJECT_ID": "2023-015C",
    "EPOCH": "2023-02-11T22:00:00.999936",
    "MEAN_MOTION": 15.71363219,
    "ECCENTRICITY": 0.0001391,
    "INCLINATION": 42.9992,
    "RA_OF_ASC_NODE": 330.9918,
    "ARG_OF_PERICENTER": 258.2607,
    "MEAN_ANOMALY": 248.2899,
    "EPHEMERIS_TYPE": 0,
    "CLASSIFICATION_TYPE": "U",
    "NORAD_CAT_ID": 55451,
    "ELEMENT_SET_NO": 999,
    "REV_AT_EPOCH": 130,
    "BSTAR": -0.00020722,
    "MEAN_MOTION_DOT": -0.00027543,
    "MEAN_MOTION_DDOT": 0
  },
  {
    "OBJECT_NAME": "STARLINK-5683",
    "OBJECT_ID": "2023-015D",
    "EPOCH": "2023-02-12T06:00:00.999648",
    "MEAN_MOTION": 15.7128791,
    "ECCENTRICITY": 0.0002066,
    "INCLINATION": 43.0001,
    "RA_OF_ASC_NODE": 328.98,
    "ARG_OF_PERICENTER": 272.4578,
    "MEAN_ANOMALY": 323.2382,
    "EPHEMERIS_TYPE": 0,
    "CLASSIFICATION_TYPE": "U",
    "NORAD_CAT_ID": 55452,
    "ELEMENT_SET_NO": 999,
    "REV_AT_EPOCH": 172,
    "BSTAR": 0.00060524,
    "MEAN_MOTION_DOT": 0.0007945,
    "MEAN_MOTION_DDOT": 0
  },
  {
    "OBJECT_NAME": "STARLINK-5684",
    "OBJECT_ID": "2023-015E",
    "EPOCH": "2023-02-11T22:00:00.999936",
    "MEAN_MOTION": 15.71402921,
    "ECCENTRICITY": 0.0001698,
    "INCLINATION": 42.9999,
    "RA_OF_ASC_NODE": 330.9879,
    "ARG_OF_PERICENTER": 244.0321,
    "MEAN_ANOMALY": 264.2798,
    "EPHEMERIS_TYPE": 0,
    "CLASSIFICATION_TYPE": "U",
    "NORAD_CAT_ID": 55453,
    "ELEMENT_SET_NO": 999,
    "REV_AT_EPOCH": 130,
    "BSTAR": -0.00045925,
    "MEAN_MOTION_DOT": -0.00060361,
    "MEAN_MOTION_DDOT": 0
  },
  {
    "OBJECT_NAME": "STARLINK-5636",
    "OBJECT_ID": "2023-015F",
    "EPOCH": "2023-02-11T22:00:00.999936",
    "MEAN_MOTION": 15.71380825,
    "ECCENTRICITY": 0.0001623,
    "INCLINATION": 42.9998,
    "RA_OF_ASC_NODE": 330.9844,
    "ARG_OF_PERICENTER": 258.0912,
    "MEAN_ANOMALY": 252.0362,
    "EPHEMERIS_TYPE": 0,
    "CLASSIFICATION_TYPE": "U",
    "NORAD_CAT_ID": 55454,
    "ELEMENT_SET_NO": 999,
    "REV_AT_EPOCH": 130,
    "BSTAR": -0.00043224,
    "MEAN_MOTION_DOT": -0.00056808,
    "MEAN_MOTION_DDOT": 0
  },
  {
    "OBJECT_NAME": "STARLINK-5680",
    "OBJECT_ID": "2023-015G",
    "EPOCH": "2023-02-12T06:00:00.999648",
    "MEAN_MOTION": 15.71288564,
    "ECCENTRICITY": 0.0001933,
    "INCLINATION": 43.0003,
    "RA_OF_ASC_NODE": 328.9809,
    "ARG_OF_PERICENTER": 270.5043,
    "MEAN_ANOMALY": 324.5771,
    "EPHEMERIS_TYPE": 0,
    "CLASSIFICATION_TYPE": "U",
    "NORAD_CAT_ID": 55455,
    "ELEMENT_SET_NO": 999,
    "REV_AT_EPOCH": 172,
    "BSTAR": 0.00091346,
    "MEAN_MOTION_DOT": 0.00120743,
    "MEAN_MOTION_DDOT": 0
  },
  {
    "OBJECT_NAME": "STARLINK-5058",
    "OBJECT_ID": "2023-015H",
    "EPOCH": "2023-02-12T06:00:00.999648",
    "MEAN_MOTION": 15.71303694,
    "ECCENTRICITY": 0.0002162,
    "INCLINATION": 43.0002,
    "RA_OF_ASC_NODE": 328.9757,
    "ARG_OF_PERICENTER": 245.8389,
    "MEAN_ANOMALY": 351.6168,
    "EPHEMERIS_TYPE": 0,
    "CLASSIFICATION_TYPE": "U",
    "NORAD_CAT_ID": 55456,
    "ELEMENT_SET_NO": 999,
    "REV_AT_EPOCH": 153,
    "BSTAR": 0.00077392,
    "MEAN_MOTION_DOT": 0.00102065,
    "MEAN_MOTION_DDOT": 0
  },
  {
    "OBJECT_NAME": "STARLINK-5682",
    "OBJECT_ID": "2023-015J",
    "EPOCH": "2023-02-11T22:00:00.999936",
    "MEAN_MOTION": 15.71390032,
    "ECCENTRICITY": 0.0002227,
    "INCLINATION": 42.9991,
    "RA_OF_ASC_NODE": 330.9866,
    "ARG_OF_PERICENTER": 234.1743,
    "MEAN_ANOMALY": 274.7343,
    "EPHEMERIS_TYPE": 0,
    "CLASSIFICATION_TYPE": "U",
    "NORAD_CAT_ID": 55457,
    "ELEMENT_SET_NO": 999,
    "REV_AT_EPOCH": 130,
    "BSTAR": -0.00034025,
    "MEAN_MOTION_DOT": -0.00044899,
    "MEAN_MOTION_DDOT": 0
  },
  {
    "OBJECT_NAME": "STARLINK-5020",
    "OBJECT_ID": "2023-015K",
    "EPOCH": "2023-02-12T06:00:00.999648",
    "MEAN_MOTION": 15.71276295,
    "ECCENTRICITY": 0.0001832,
    "INCLINATION": 43.0001,
    "RA_OF_ASC_NODE": 328.967,
    "ARG_OF_PERICENTER": 269.6183,
    "MEAN_ANOMALY": 330.8287,
    "EPHEMERIS_TYPE": 0,
    "CLASSIFICATION_TYPE": "U",
    "NORAD_CAT_ID": 55458,
    "ELEMENT_SET_NO": 999,
    "REV_AT_EPOCH": 172,
    "BSTAR": 0.0010558,
    "MEAN_MOTION_DOT": 0.00139878,
    "MEAN_MOTION_DDOT": 0
  },
  {
    "OBJECT_NAME": "STARLINK-5669",
    "OBJECT_ID": "2023-015L",
    "EPOCH": "2023-02-11T22:00:00.999936",
    "MEAN_MOTION": 15.71377687,
    "ECCENTRICITY": 0.000182,
    "INCLINATION": 42.9991,
    "RA_OF_ASC_NODE": 330.9804,
    "ARG_OF_PERICENTER": 244.86,
    "MEAN_ANOMALY": 266.4538,
    "EPHEMERIS_TYPE": 0,
    "CLASSIFICATION_TYPE": "U",
    "NORAD_CAT_ID": 55459,
    "ELEMENT_SET_NO": 999,
    "REV_AT_EPOCH": 130,
    "BSTAR": -0.000351,
    "MEAN_MOTION_DOT": -0.00046269,
    "MEAN_MOTION_DDOT": 0
  },
  {
    "OBJECT_NAME": "STARLINK-5678",
    "OBJECT_ID": "2023-015M",
    "EPOCH": "2023-02-11T22:00:00.999936",
    "MEAN_MOTION": 15.71411821,
    "ECCENTRICITY": 0.0001495,
    "INCLINATION": 42.9996,
    "RA_OF_ASC_NODE": 330.9801,
    "ARG_OF_PERICENTER": 246.7135,
    "MEAN_ANOMALY": 265.2061,
    "EPHEMERIS_TYPE": 0,
    "CLASSIFICATION_TYPE": "U",
    "NORAD_CAT_ID": 55460,
    "ELEMENT_SET_NO": 999,
    "REV_AT_EPOCH": 130,
    "BSTAR": -0.00059793,
    "MEAN_MOTION_DOT": -0.00078312,
    "MEAN_MOTION_DDOT": 0
  },
  {
    "OBJECT_NAME": "STARLINK-5646",
    "OBJECT_ID": "2023-015N",
    "EPOCH": "2023-02-11T22:00:00.999936",
    "MEAN_MOTION": 15.71385394,
    "ECCENTRICITY": 0.0001275,
    "INCLINATION": 42.9996,
    "RA_OF_ASC_NODE": 330.9822,
    "ARG_OF_PERICENTER": 242.3619,
    "MEAN_ANOMALY": 268.3632,
    "EPHEMERIS_TYPE": 0,
    "CLASSIFICATION_TYPE": "U",
    "NORAD_CAT_ID": 55461,
    "ELEMENT_SET_NO": 999,
    "REV_AT_EPOCH": 130,
    "BSTAR": -0.00041036,
    "MEAN_MOTION_DOT": -0.00053982,
    "MEAN_MOTION_DDOT": 0
  },
  {
    "OBJECT_NAME": "STARLINK-5673",
    "OBJECT_ID": "2023-015P",
    "EPOCH": "2023-02-11T22:00:00.999936",
    "MEAN_MOTION": 15.71385372,
    "ECCENTRICITY": 0.0001152,
    "INCLINATION": 42.9997,
    "RA_OF_ASC_NODE": 330.9744,
    "ARG_OF_PERICENTER": 266.6761,
    "MEAN_ANOMALY": 247.6174,
    "EPHEMERIS_TYPE": 0,
    "CLASSIFICATION_TYPE": "U",
    "NORAD_CAT_ID": 55462,
    "ELEMENT_SET_NO": 999,
    "REV_AT_EPOCH": 130,
    "BSTAR": -0.00041906,
    "MEAN_MOTION_DOT": -0.00055108,
    "MEAN_MOTION_DDOT": 0
  },
  {
    "OBJECT_NAME": "STARLINK-5677",
    "OBJECT_ID": "2023-015Q",
    "EPOCH": "2023-02-11T22:00:00.999936",
    "MEAN_MOTION": 15.71425415,
    "ECCENTRICITY": 0.0002174,
    "INCLINATION": 42.9997,
    "RA_OF_ASC_NODE": 330.977,
    "ARG_OF_PERICENTER": 234.3041,
    "MEAN_ANOMALY": 278.7974,
    "EPHEMERIS_TYPE": 0,
    "CLASSIFICATION_TYPE": "U",
    "NORAD_CAT_ID": 55463,
    "ELEMENT_SET_NO": 999,
    "REV_AT_EPOCH": 130,
    "BSTAR": -0.00081936,
    "MEAN_MOTION_DOT": -0.00106855,
    "MEAN_MOTION_DDOT": 0
  }
]
